[{"OBJECT_NAME":"SDA_1670","OBJECT_ID":"2025-230G","EPOCH":"2026-03-09T17:23:00.469536","MEAN_MOTION":13.84837821,"ECCENTRICITY":0.00038733,"INCLINATION":81.2981,"RA_OF_ASC_NODE":303.9295,"ARG_OF_PERICENTER":76.4422,"MEAN_ANOMALY":283.7167,"EPHEMERIS_TYPE":0,"CLASSIFICATION_TYPE":"U","NORAD_CAT_ID":65980,"ELEMENT_SET_NO":999,"REV_AT_EPOCH":2004,"BSTAR":9.0952862e-5,"MEAN_MOTION_DOT":1.14e-6,"MEAN_MOTION_DDOT":0},{"OBJECT_NAME":"COSMOS 1339","OBJECT_ID":"1982-012A","EPOCH":"2026-03-09T22:21:46.009728","MEAN_MOTION":13.7577422,"ECCENTRICITY":0.00447069,"INCLINATION":82.9012,"RA_OF_ASC_NODE":33.4786,"ARG_OF_PERICENTER":76.877,"MEAN_ANOMALY":283.737,"EPHEMERIS_TYPE":0,"CLASSIFICATION_TYPE":"U","NORAD_CAT_ID":13065,"ELEMENT_SET_NO":999,"REV_AT_EPOCH":21088,"BSTAR":7.1127279e-5,"MEAN_MOTION_DOT":8.5e-7,"MEAN_MOTION_DDOT":0}]
